{"type": "FeatureCollection", "features": [ {"type": "Feature", "properties": {"norad_id": 39574, "name": "GPM-CORE", "group": "resource", "lat": 52.327884889223895, "lon": -100.19816043316041, "alt_km": 430.4287354492235, "timestamp": "2025-12-09T18:55:16.895595+00:00", "meta": {"OBJECT_NAME": "GPM-CORE", "OBJECT_ID": "2014-009C", "EPOCH": "2025-12-09T15:33:09.299520", "MEAN_MOTION": 15.45450971, "ECCENTRICITY": 0.00105182, "INCLINATION": 64.9737, "RA_OF_ASC_NODE": 223.0367, "ARG_OF_PERICENTER": 270.0076, "MEAN_ANOMALY": 89.986, "EPHEMERIS_TYPE": 0, "CLASSIFICATION_TYPE": "U", "NORAD_CAT_ID": 39574, "ELEMENT_SET_NO": 999, "REV_AT_EPOCH": 66853, "BSTAR": 0.00039419675, "MEAN_MOTION_DOT": 0.00018814, "MEAN_MOTION_DDOT": 0}, "tle": {"line1": "1 39574U 14009C   25343.64802430  .00018814  00000+0  39420-3 0  9998", "line2": "2 39574  64.9737 223.0367 0010518 270.0076  89.9860 15.45450971668535"}}, "geometry": {"type": "Point", "coordinates": [-100.19816043316041, 52.327884889223895]}}, {"type": "Feature", "properties": {"norad_id": 39634, "name": "SENTINEL-1A", "group": "resource", "lat": 69.00266675103555, "lon": -168.9169674840541, "alt_km": 688.2531988292903, "timestamp": "2025-12-09T18:55:16.895605+00:00", "meta": {"OBJECT_NAME": "SENTINEL-1A", "OBJECT_ID": "2014-016A", "EPOCH": "2025-12-09T15:07:50.214720", "MEAN_MOTION": 14.59200602, "ECCENTRICITY": 0.00012507, "INCLINATION": 98.18, "RA_OF_ASC_NODE": 348.9173, "ARG_OF_PERICENTER": 83.6974, "MEAN_ANOMALY": 276.4368, "EPHEMERIS_TYPE": 0, "CLASSIFICATION_TYPE": "U", "NORAD_CAT_ID": 39634, "ELEMENT_SET_NO": 999, "REV_AT_EPOCH": 62237, "BSTAR": 5.974094e-05, "MEAN_MOTION_DOT": 2.36e-06, "MEAN_MOTION_DDOT": 0}, "tle": {"line1": "1 39634U 14016A   25343.63044230  .00000236  00000+0  59741-4 0  9996", "line2": "2 39634  98.1800 348.9173 0001250  83.6974 276.4368 14.59200602622378"}}, "geometry": {"type": "Point", "coordinates": [-168.9169674840541, 69.00266675103555]}}, {"type": "Feature", "properties": {"norad_id": 39731, "name": "KAZEOSAT 1", "group": "resource", "lat": -80.61284074100854, "lon": 173.1763175812773, "alt_km": 759.8055500227811, "timestamp": "2025-12-09T18:55:16.895615+00:00", "meta": {"OBJECT_NAME": "KAZEOSAT 1", "OBJECT_ID": "2014-024A", "EPOCH": "2025-12-09T14:21:44.992224", "MEAN_MOTION": 14.42060759, "ECCENTRICITY": 0.00010889, "INCLINATION": 98.3434, "RA_OF_ASC_NODE": 55.5762, "ARG_OF_PERICENTER": 93.6424, "MEAN_ANOMALY": 266.489, "EPHEMERIS_TYPE": 0, "CLASSIFICATION_TYPE": "U", "NORAD_CAT_ID": 39731, "ELEMENT_SET_NO": 999, "REV_AT_EPOCH": 61123, "BSTAR": 0.00021180612, "MEAN_MOTION_DOT": 6.53e-06, "MEAN_MOTION_DDOT": 0}, "tle": {"line1": "1 39731U 14024A   25343.59843741  .00000653  00000+0  21181-3 0  9991", "line2": "2 39731  98.3434  55.5762 0001088  93.6424 266.4890 14.42060759611237"}}, "geometry": {"type": "Point", "coordinates": [173.1763175812773, -80.61284074100854]}}, {"type": "Feature", "properties": {"norad_id": 39766, "name": "ALOS-2", "group": "resource", "lat": 65.65930572900449, "lon": -83.39379883221739, "alt_km": 623.5697101352143, "timestamp": "2025-12-09T18:55:16.895625+00:00", "meta": {"OBJECT_NAME": "ALOS-2", "OBJECT_ID": "2014-029A", "EPOCH": "2025-12-09T13:32:33.770400", "MEAN_MOTION": 14.79464767, "ECCENTRICITY": 0.0001523, "INCLINATION": 97.9228, "RA_OF_ASC_NODE": 78.4559, "ARG_OF_PERICENTER": 99.7779, "MEAN_ANOMALY": 260.3605, "EPHEMERIS_TYPE": 0, "CLASSIFICATION_TYPE": "U", "NORAD_CAT_ID": 39766, "ELEMENT_SET_NO": 999, "REV_AT_EPOCH": 62354, "BSTAR": 0.00077734142, "MEAN_MOTION_DOT": 5.758e-05, "MEAN_MOTION_DDOT": 0}, "tle": {"line1": "1 39766U 14029A   25343.56427975  .00005758  00000+0  77734-3 0  9994", "line2": "2 39766  97.9228  78.4559 0001523  99.7779 260.3605 14.79464767623544"}}, "geometry": {"type": "Point", "coordinates": [-83.39379883221739, 65.65930572900449]}}, {"type": "Feature", "properties": {"norad_id": 40010, "name": "KAZEOSAT 2", "group": "resource", "lat": -36.84172655094838, "lon": -166.0422793565568, "alt_km": 620.8659897794223, "timestamp": "2025-12-09T18:55:16.895635+00:00", "meta": {"OBJECT_NAME": "KAZEOSAT 2", "OBJECT_ID": "2014-033A", "EPOCH": "2025-12-09T14:14:16.050912", "MEAN_MOTION": 14.85159412, "ECCENTRICITY": 0.00075352, "INCLINATION": 97.55, "RA_OF_ASC_NODE": 188.0698, "ARG_OF_PERICENTER": 218.2286, "MEAN_ANOMALY": 141.8396, "EPHEMERIS_TYPE": 0, "CLASSIFICATION_TYPE": "U", "NORAD_CAT_ID": 40010, "ELEMENT_SET_NO": 999, "REV_AT_EPOCH": 62081, "BSTAR": 0.0001546204, "MEAN_MOTION_DOT": 1.274e-05, "MEAN_MOTION_DDOT": 0}, "tle": {"line1": "1 40010U 14033A   25343.59324133  .00001274  00000+0  15462-3 0  9997", "line2": "2 40010  97.5500 188.0698 0007535 218.2286 141.8396 14.85159412620811"}}, "geometry": {"type": "Point", "coordinates": [-166.0422793565568, -36.84172655094838]}}, {"type": "Feature", "properties": {"norad_id": 40011, "name": "HODOYOSHI-4", "group": "resource", "lat": 25.755705669532368, "lon": 169.15310743951468, "alt_km": 621.0858096746806, "timestamp": "2025-12-09T18:55:16.895646+00:00", "meta": {"OBJECT_NAME": "HODOYOSHI-4", "OBJECT_ID": "2014-033B", "EPOCH": "2025-12-09T13:57:39.145248", "MEAN_MOTION": 14.87462213, "ECCENTRICITY": 0.00230141, "INCLINATION": 97.5412, "RA_OF_ASC_NODE": 172.6212, "ARG_OF_PERICENTER": 211.4456, "MEAN_ANOMALY": 148.5387, "EPHEMERIS_TYPE": 0, "CLASSIFICATION_TYPE": "U", "NORAD_CAT_ID": 40011, "ELEMENT_SET_NO": 999, "REV_AT_EPOCH": 62061, "BSTAR": 0.00019879859, "MEAN_MOTION_DOT": 1.757e-05, "MEAN_MOTION_DDOT": 0}, "tle": {"line1": "1 40011U 14033B   25343.58170307  .00001757  00000+0  19880-3 0  9993", "line2": "2 40011  97.5412 172.6212 0023014 211.4456 148.5387 14.87462213620619"}}, "geometry": {"type": "Point", "coordinates": [169.15310743951468, 25.755705669532368]}}, {"type": "Feature", "properties": {"norad_id": 40013, "name": "DEIMOS-2", "group": "resource", "lat": 54.16745004855882, "lon": 50.35118967537164, "alt_km": 583.0436638138299, "timestamp": "2025-12-09T18:55:16.895656+00:00", "meta": {"OBJECT_NAME": "DEIMOS-2", "OBJECT_ID": "2014-033D", "EPOCH": "2025-12-09T15:08:45.955680", "MEAN_MOTION": 14.9295136, "ECCENTRICITY": 0.00010057, "INCLINATION": 97.6066, "RA_OF_ASC_NODE": 219.5339, "ARG_OF_PERICENTER": 94.8644, "MEAN_ANOMALY": 265.2691, "EPHEMERIS_TYPE": 0, "CLASSIFICATION_TYPE": "U", "NORAD_CAT_ID": 40013, "ELEMENT_SET_NO": 999, "REV_AT_EPOCH": 60943, "BSTAR": 0.00013057626, "MEAN_MOTION_DOT": 1.301e-05, "MEAN_MOTION_DDOT": 0}, "tle": {"line1": "1 40013U 14033D   25343.63108745  .00001301  00000+0  13058-3 0  9994", "line2": "2 40013  97.6066 219.5339 0001005  94.8644 265.2691 14.92951360609430"}}, "geometry": {"type": "Point", "coordinates": [50.35118967537164, 54.16745004855882]}}, {"type": "Feature", "properties": {"norad_id": 40015, "name": "HODOYOSHI-3", "group": "resource", "lat": -19.75663039696308, "lon": 152.50783763391175, "alt_km": 616.3005587734215, "timestamp": "2025-12-09T18:55:16.895666+00:00", "meta": {"OBJECT_NAME": "HODOYOSHI-3", "OBJECT_ID": "2014-033F", "EPOCH": "2025-12-09T10:55:26.573088", "MEAN_MOTION": 14.84790415, "ECCENTRICITY": 0.00318132, "INCLINATION": 97.62, "RA_OF_ASC_NODE": 149.4332, "ARG_OF_PERICENTER": 259.2155, "MEAN_ANOMALY": 100.5478, "EPHEMERIS_TYPE": 0, "CLASSIFICATION_TYPE": "U", "NORAD_CAT_ID": 40015, "ELEMENT_SET_NO": 999, "REV_AT_EPOCH": 61946, "BSTAR": 0.00035673277, "MEAN_MOTION_DOT": 3.002e-05, "MEAN_MOTION_DDOT": 0}, "tle": {"line1": "1 40015U 14033F   25343.45516867  .00003002  00000+0  35673-3 0  9991", "line2": "2 40015  97.6200 149.4332 0031813 259.2155 100.5478 14.84790415619461"}}, "geometry": {"type": "Point", "coordinates": [152.50783763391175, -19.75663039696308]}}, {"type": "Feature", "properties": {"norad_id": 40053, "name": "SPOT 7", "group": "resource", "lat": -41.79437725823236, "lon": 53.237237052469936, "alt_km": 698.1325758300618, "timestamp": "2025-12-09T18:55:16.895676+00:00", "meta": {"OBJECT_NAME": "SPOT 7", "OBJECT_ID": "2014-034A", "EPOCH": "2025-12-09T14:10:57.846720", "MEAN_MOTION": 14.60728415, "ECCENTRICITY": 0.00015518, "INCLINATION": 98.0905, "RA_OF_ASC_NODE": 45.739, "ARG_OF_PERICENTER": 89.1185, "MEAN_ANOMALY": 271.0194, "EPHEMERIS_TYPE": 0, "CLASSIFICATION_TYPE": "U", "NORAD_CAT_ID": 40053, "ELEMENT_SET_NO": 999, "REV_AT_EPOCH": 60945, "BSTAR": 0.00023232321, "MEAN_MOTION_DOT": 1.087e-05, "MEAN_MOTION_DDOT": 0}, "tle": {"line1": "1 40053U 14034A   25343.59094730  .00001087  00000+0  23232-3 0  9998", "line2": "2 40053  98.0905  45.7390 0001551  89.1185 271.0194 14.60728415609453"}}, "geometry": {"type": "Point", "coordinates": [53.237237052469936, -41.79437725823236]}}, {"type": "Feature", "properties": {"norad_id": 40072, "name": "SKYSAT-B", "group": "resource", "lat": -29.149717876121255, "lon": -67.9566433808957, "alt_km": 616.3363046145114, "timestamp": "2025-12-09T18:55:16.895686+00:00", "meta": {"OBJECT_NAME": "SKYSAT-B", "OBJECT_ID": "2014-037D", "EPOCH": "2025-12-09T14:12:35.829504", "MEAN_MOTION": 14.87309327, "ECCENTRICITY": 0.00059016, "INCLINATION": 98.3608, "RA_OF_ASC_NODE": 287.1318, "ARG_OF_PERICENTER": 159.6334, "MEAN_ANOMALY": 200.5117, "EPHEMERIS_TYPE": 0, "CLASSIFICATION_TYPE": "U", "NORAD_CAT_ID": 40072, "ELEMENT_SET_NO": 999, "REV_AT_EPOCH": 61777, "BSTAR": 0.00037768263, "MEAN_MOTION_DOT": 3.349e-05, "MEAN_MOTION_DDOT": 0}, "tle": {"line1": "1 40072U 14037D   25343.59208136  .00003349  00000+0  37768-3 0  9991", "line2": "2 40072  98.3608 287.1318 0005901 159.6334 200.5117 14.87309327617773"}}, "geometry": {"type": "Point", "coordinates": [-67.9566433808957, -29.149717876121255]}}]}